{
  "type": "FeatureCollection",
  "features": [
    {
      "type": "Feature",
      "properties": {
        "norad_id": 40889,
        "name": "GSAT0205 (GALILEO 9)",
        "group": "galileo",
        "lat": 55.00035182263809,
        "lon": -41.59879065494494,
        "alt_km": 23204.70926305782,
        "timestamp": "2025-12-14T14:39:29.633417+00:00",
        "meta_object_name": "GSAT0205 (GALILEO 9)",
        "meta_object_id": "2015-045A",
        "meta_epoch": "2025-12-13T06:56:57.536448",
        "meta_mean_motion": 1.70473165,
        "meta_eccentricity": 0.00060191,
        "meta_inclination": 55.0031,
        "meta_ra_of_asc_node": 226.743,
        "meta_arg_of_pericenter": 39.8542,
        "meta_mean_anomaly": 320.2702,
        "meta_ephemeris_type": 0,
        "meta_classification_type": "U",
        "meta_norad_cat_id": 40889,
        "meta_element_set_no": 999,
        "meta_rev_at_epoch": 6384,
        "meta_bstar": 0,
        "meta_mean_motion_dot": 2.2e-07,
        "meta_mean_motion_ddot": 0,
        "tle_line1": "1 40889U 15045A   25347.28955482  .00000022  00000+0  00000+0 0  9990",
        "tle_line2": "2 40889  55.0031 226.7430 0006019  39.8542 320.2702  1.70473165 63847"
      },
      "geometry": {
        "type": "Point",
        "coordinates": [
          -41.59879065494494,
          55.00035182263809
        ]
      }
    },
    {
      "type": "Feature",
      "properties": {
        "norad_id": 40890,
        "name": "GSAT0206 (GALILEO 10)",
        "group": "galileo",
        "lat": -35.102629899926974,
        "lon": -162.76055162848553,
        "alt_km": 23224.910316207795,
        "timestamp": "2025-12-14T14:39:29.633428+00:00",
        "meta_object_name": "GSAT0206 (GALILEO 10)",
        "meta_object_id": "2015-045B",
        "meta_epoch": "2025-12-11T03:55:56.933760",
        "meta_mean_motion": 1.70473071,
        "meta_eccentricity": 0.00038554,
        "meta_inclination": 55.0029,
        "meta_ra_of_asc_node": 226.7968,
        "meta_arg_of_pericenter": 36.8797,
        "meta_mean_anomaly": 323.2259,
        "meta_ephemeris_type": 0,
        "meta_classification_type": "U",
        "meta_norad_cat_id": 40890,
        "meta_element_set_no": 999,
        "meta_rev_at_epoch": 6383,
        "meta_bstar": 0,
        "meta_mean_motion_dot": 9e-08,
        "meta_mean_motion_ddot": 0,
        "tle_line1": "1 40890U 15045B   25345.16385340  .00000009  00000+0  00000+0 0  9992",
        "tle_line2": "2 40890  55.0029 226.7968 0003855  36.8797 323.2259  1.70473071 63831"
      },
      "geometry": {
        "type": "Point",
        "coordinates": [
          -162.76055162848553,
          -35.102629899926974
        ]
      }
    },
    {
      "type": "Feature",
      "properties": {
        "norad_id": 41174,
        "name": "GSAT0209 (GALILEO 12)",
        "group": "galileo",
        "lat": -26.194279922911257,
        "lon": -54.09132464158071,
        "alt_km": 23230.967587651263,
        "timestamp": "2025-12-14T14:39:29.633440+00:00",
        "meta_object_name": "GSAT0209 (GALILEO 12)",
        "meta_object_id": "2015-079A",
        "meta_epoch": "2025-12-10T17:53:22.611840",
        "meta_mean_motion": 1.70474458,
        "meta_eccentricity": 0.00024095,
        "meta_inclination": 55.7117,
        "meta_ra_of_asc_node": 106.4357,
        "meta_arg_of_pericenter": 351.4479,
        "meta_mean_anomaly": 8.5179,
        "meta_ephemeris_type": 0,
        "meta_classification_type": "U",
        "meta_norad_cat_id": 41174,
        "meta_element_set_no": 999,
        "meta_rev_at_epoch": 6156,
        "meta_bstar": 0,
        "meta_mean_motion_dot": 1.1e-07,
        "meta_mean_motion_ddot": 0,
        "tle_line1": "1 41174U 15079A   25344.74540060  .00000011  00000+0  00000+0 0  9993",
        "tle_line2": "2 41174  55.7117 106.4357 0002409 351.4479   8.5179  1.70474458 61567"
      },
      "geometry": {
        "type": "Point",
        "coordinates": [
          -54.09132464158071,
          -26.194279922911257
        ]
      }
    },
    {
      "type": "Feature",
      "properties": {
        "norad_id": 41175,
        "name": "GSAT0208 (GALILEO 11)",
        "group": "galileo",
        "lat": 53.67909647305494,
        "lon": 174.32829164407568,
        "alt_km": 23214.849169859666,
        "timestamp": "2025-12-14T14:39:29.633466+00:00",
        "meta_object_name": "GSAT0208 (GALILEO 11)",
        "meta_object_id": "2015-079B",
        "meta_epoch": "2025-12-12T17:24:26.771040",
        "meta_mean_motion": 1.70474307,
        "meta_eccentricity": 0.00018806,
        "meta_inclination": 55.7111,
        "meta_ra_of_asc_node": 106.3784,
        "meta_arg_of_pericenter": 358.3144,
        "meta_mean_anomaly": 1.6545,
        "meta_ephemeris_type": 0,
        "meta_classification_type": "U",
        "meta_norad_cat_id": 41175,
        "meta_element_set_no": 999,
        "meta_rev_at_epoch": 6201,
        "meta_bstar": 0,
        "meta_mean_motion_dot": 4e-08,
        "meta_mean_motion_ddot": 0,
        "tle_line1": "1 41175U 15079B   25346.72530985  .00000004  00000+0  00000+0 0  9991",
        "tle_line2": "2 41175  55.7111 106.3784 0001880 358.3144   1.6545  1.70474307 62017"
      },
      "geometry": {
        "type": "Point",
        "coordinates": [
          174.32829164407568,
          53.67909647305494
        ]
      }
    },
    {
      "type": "Feature",
      "properties": {
        "norad_id": 41549,
        "name": "GSAT0211 (GALILEO 14)",
        "group": "galileo",
        "lat": 0.8107755369868589,
        "lon": -132.65648512523518,
        "alt_km": 23210.779691653963,
        "timestamp": "2025-12-14T14:39:29.633486+00:00",
        "meta_object_name": "GSAT0211 (GALILEO 14)",
        "meta_object_id": "2016-030A",
        "meta_epoch": "2025-12-11T02:09:03.353760",
        "meta_mean_motion": 1.70473055,
        "meta_eccentricity": 0.00041282,
        "meta_inclination": 55.1527,
        "meta_ra_of_asc_node": 226.8689,
        "meta_arg_of_pericenter": 18.4657,
        "meta_mean_anomaly": 341.6286,
        "meta_ephemeris_type": 0,
        "meta_classification_type": "U",
        "meta_norad_cat_id": 41549,
        "meta_element_set_no": 999,
        "meta_rev_at_epoch": 5946,
        "meta_bstar": 0,
        "meta_mean_motion_dot": 9e-08,
        "meta_mean_motion_ddot": 0,
        "tle_line1": "1 41549U 16030A   25345.08962215  .00000009  00000+0  00000+0 0  9992",
        "tle_line2": "2 41549  55.1527 226.8689 0004128  18.4657 341.6286  1.70473055 59463"
      },
      "geometry": {
        "type": "Point",
        "coordinates": [
          -132.65648512523518,
          0.8107755369868589
        ]
      }
    },
    {
      "type": "Feature",
      "properties": {
        "norad_id": 41550,
        "name": "GSAT0210 (GALILEO 13)",
        "group": "galileo",
        "lat": -18.747887251847647,
        "lon": 60.44234075846457,
        "alt_km": 23222.07518149903,
        "timestamp": "2025-12-14T14:39:29.633502+00:00",
        "meta_object_name": "GSAT0210 (GALILEO 13)",
        "meta_object_id": "2016-030B",
        "meta_epoch": "2025-12-11T08:19:41.751264",
        "meta_mean_motion": 1.70473653,
        "meta_eccentricity": 0.00011945,
        "meta_inclination": 55.152,
        "meta_ra_of_asc_node": 226.8599,
        "meta_arg_of_pericenter": 242.2312,
        "meta_mean_anomaly": 117.8354,
        "meta_ephemeris_type": 0,
        "meta_classification_type": "U",
        "meta_norad_cat_id": 41550,
        "meta_element_set_no": 999,
        "meta_rev_at_epoch": 5946,
        "meta_bstar": 0,
        "meta_mean_motion_dot": 1e-07,
        "meta_mean_motion_ddot": 0,
        "tle_line1": "1 41550U 16030B   25345.34701101  .00000010  00000+0  00000+0 0  9990",
        "tle_line2": "2 41550  55.1520 226.8599 0001194 242.2312 117.8354  1.70473653 59466"
      },
      "geometry": {
        "type": "Point",
        "coordinates": [
          60.44234075846457,
          -18.747887251847647
        ]
      }
    },
    {
      "type": "Feature",
      "properties": {
        "norad_id": 41859,
        "name": "GSAT0207 (GALILEO 15)",
        "group": "galileo",
        "lat": 26.0656294440565,
        "lon": 125.9142986840504,
        "alt_km": 23216.732500085345,
        "timestamp": "2025-12-14T14:39:29.633514+00:00",
        "meta_object_name": "GSAT0207 (GALILEO 15)",
        "meta_object_id": "2016-069A",
        "meta_epoch": "2025-12-13T09:14:27.730752",
        "meta_mean_motion": 1.70474447,
        "meta_eccentricity": 0.00022423,
        "meta_inclination": 55.3826,
        "meta_ra_of_asc_node": 106.2323,
        "meta_arg_of_pericenter": 321.9482,
        "meta_mean_anomaly": 38.0041,
        "meta_ephemeris_type": 0,
        "meta_classification_type": "U",
        "meta_norad_cat_id": 41859,
        "meta_element_set_no": 999,
        "meta_rev_at_epoch": 5623,
        "meta_bstar": 0,
        "meta_mean_motion_dot": 0,
        "meta_mean_motion_ddot": 0,
        "tle_line1": "1 41859U 16069A   25347.38504318  .00000000  00000+0  00000+0 0  9990",
        "tle_line2": "2 41859  55.3826 106.2323 0002242 321.9482  38.0041  1.70474447 56234"
      },
      "geometry": {
        "type": "Point",
        "coordinates": [
          125.9142986840504,
          26.0656294440565
        ]
      }
    }
  ]
}